[{"OBJECT_NAME":"ONEWEB-0318","OBJECT_ID":"2021-075AF","EPOCH":"2026-02-01T22:38:52.431360","MEAN_MOTION":13.1868624,"ECCENTRICITY":0.00021152,"INCLINATION":87.921,"RA_OF_ASC_NODE":2.3037,"ARG_OF_PERICENTER":79.6016,"MEAN_ANOMALY":280.5355,"EPHEMERIS_TYPE":0,"CLASSIFICATION_TYPE":"U","NORAD_CAT_ID":49104,"ELEMENT_SET_NO":999,"REV_AT_EPOCH":21934,"BSTAR":-8.3799526e-5,"MEAN_MOTION_DOT":-2.0e-7,"MEAN_MOTION_DDOT":0},{"OBJECT_NAME":"ONEWEB-0319","OBJECT_ID":"2021-075AG","EPOCH":"2026-02-02T00:10:07.048128","MEAN_MOTION":13.17649275,"ECCENTRICITY":0.00022479,"INCLINATION":87.9093,"RA_OF_ASC_NODE":32.7281,"ARG_OF_PERICENTER":77.1711,"MEAN_ANOMALY":282.9672,"EPHEMERIS_TYPE":0,"CLASSIFICATION_TYPE":"U","NORAD_CAT_ID":49105,"ELEMENT_SET_NO":999,"REV_AT_EPOCH":21580,"BSTAR":-3.1975231e-5,"MEAN_MOTION_DOT":0,"MEAN_MOTION_DDOT":0},{"OBJECT_NAME":"ONEWEB-0323","OBJECT_ID":"2021-075AH","EPOCH":"2026-02-01T22:45:52.913376","MEAN_MOTION":13.12442069,"ECCENTRICITY":0.00024693,"INCLINATION":87.8949,"RA_OF_ASC_NODE":17.4903,"ARG_OF_PERICENTER":80.8931,"MEAN_ANOMALY":279.2477,"EPHEMERIS_TYPE":0,"CLASSIFICATION_TYPE":"U","NORAD_CAT_ID":49106,"ELEMENT_SET_NO":999,"REV_AT_EPOCH":21681,"BSTAR":0.00093696445,"MEAN_MOTION_DOT":3.5e-6,"MEAN_MOTION_DDOT":0},{"OBJECT_NAME":"ONEWEB-0329","OBJECT_ID":"2021-075AJ","EPOCH":"2026-02-02T00:22:15.378528","MEAN_MOTION":13.1765107,"ECCENTRICITY":0.0002009,"INCLINATION":87.909,"RA_OF_ASC_NODE":32.7271,"ARG_OF_PERICENTER":89.9329,"MEAN_ANOMALY":270.2032,"EPHEMERIS_TYPE":0,"CLASSIFICATION_TYPE":"U","NORAD_CAT_ID":49107,"ELEMENT_SET_NO":999,"REV_AT_EPOCH":21578,"BSTAR":7.4933081e-5,"MEAN_MOTION_DOT":4.2e-7,"MEAN_MOTION_DDOT":0},{"OBJECT_NAME":"ONEWEB-0330","OBJECT_ID":"2021-075AK","EPOCH":"2026-02-02T00:23:28.146336","MEAN_MOTION":13.17650532,"ECCENTRICITY":0.00019682,"INCLINATION":87.9092,"RA_OF_ASC_NODE":32.7339,"ARG_OF_PERICENTER":94.917,"MEAN_ANOMALY":265.2186,"EPHEMERIS_TYPE":0,"CLASSIFICATION_TYPE":"U","NORAD_CAT_ID":49108,"ELEMENT_SET_NO":999,"REV_AT_EPOCH":21582,"BSTAR":-6.3996823e-5,"MEAN_MOTION_DOT":-1.2e-7,"MEAN_MOTION_DDOT":0},{"OBJECT_NAME":"ONEWEB-0292","OBJECT_ID":"2021-083A","EPOCH":"2026-02-02T06:07:15.324672","MEAN_MOTION":13.13470211,"ECCENTRICITY":0.00019611,"INCLINATION":87.9018,"RA_OF_ASC_NODE":347.0723,"ARG_OF_PERICENTER":78.2486,"MEAN_ANOMALY":281.8863,"EPHEMERIS_TYPE":0,"CLASSIFICATION_TYPE":"U","NORAD_CAT_ID":49186,"ELEMENT_SET_NO":999,"REV_AT_EPOCH":21321,"BSTAR":0.00038722493,"MEAN_MOTION_DOT":1.54e-6,"MEAN_MOTION_DDOT":0},{"OBJECT_NAME":"ONEWEB-0303","OBJECT_ID":"2021-083B","EPOCH":"2026-02-01T22:34:06.957120","MEAN_MOTION":13.18686778,"ECCENTRICITY":0.00019997,"INCLINATION":87.9212,"RA_OF_ASC_NODE":2.3065,"ARG_OF_PERICENTER":80.4494,"MEAN_ANOMALY":279.6864,"EPHEMERIS_TYPE":0,"CLASSIFICATION_TYPE":"U","NORAD_CAT_ID":49187,"ELEMENT_SET_NO":999,"REV_AT_EPOCH":21215,"BSTAR":4.9735851e-5,"MEAN_MOTION_DOT":3.3e-7,"MEAN_MOTION_DDOT":0},{"OBJECT_NAME":"ONEWEB-0306","OBJECT_ID":"2021-083C","EPOCH":"2026-02-01T22:19:51.008736","MEAN_MOTION":13.18688319,"ECCENTRICITY":0.00016781,"INCLINATION":87.9213,"RA_OF_ASC_NODE":2.2922,"ARG_OF_PERICENTER":87.7318,"MEAN_ANOMALY":272.4006,"EPHEMERIS_TYPE":0,"CLASSIFICATION_TYPE":"U","NORAD_CAT_ID":49188,"ELEMENT_SET_NO":999,"REV_AT_EPOCH":21219,"BSTAR":0.00016720427,"MEAN_MOTION_DOT":7.9e-7,"MEAN_MOTION_DDOT":0},{"OBJECT_NAME":"ONEWEB-0307","OBJECT_ID":"2021-083D","EPOCH":"2026-02-02T05:58:43.940352","MEAN_MOTION":13.13469786,"ECCENTRICITY":0.00018314,"INCLINATION":87.9014,"RA_OF_ASC_NODE":347.0629,"ARG_OF_PERICENTER":81.2771,"MEAN_ANOMALY":278.8565,"EPHEMERIS_TYPE":0,"CLASSIFICATION_TYPE":"U","NORAD_CAT_ID":49189,"ELEMENT_SET_NO":999,"REV_AT_EPOCH":21321,"BSTAR":0.00084963902,"MEAN_MOTION_DOT":3.23e-6,"MEAN_MOTION_DDOT":0},{"OBJECT_NAME":"ONEWEB-0320","OBJECT_ID":"2021-083E","EPOCH":"2026-02-02T03:58:20.724096","MEAN_MOTION":13.18687206,"ECCENTRICITY":0.00018529,"INCLINATION":87.9204,"RA_OF_ASC_NODE":2.2717,"ARG_OF_PERICENTER":84.4939,"MEAN_ANOMALY":275.6405,"EPHEMERIS_TYPE":0,"CLASSIFICATION_TYPE":"U","NORAD_CAT_ID":49190,"ELEMENT_SET_NO":999,"REV_AT_EPOCH":21218,"BSTAR":-0.00011027431,"MEAN_MOTION_DOT":-3.1e-7,"MEAN_MOTION_DDOT":0},{"OBJECT_NAME":"ONEWEB-0321","OBJECT_ID":"2021-083F","EPOCH":"2026-02-02T06:40:25.658400","MEAN_MOTION":13.20774509,"ECCENTRICITY":0.00014236,"INCLINATION":87.9225,"RA_OF_ASC_NODE":301.3573,"ARG_OF_PERICENTER":83.1812,"MEAN_ANOMALY":276.9484,"EPHEMERIS_TYPE":0,"CLASSIFICATION_TYPE":"U","NORAD_CAT_ID":49191,"ELEMENT_SET_NO":999,"REV_AT_EPOCH":21902,"BSTAR":-7.0420936e-5,"MEAN_MOTION_DOT":-1.6e-7,"MEAN_MOTION_DDOT":0},{"OBJECT_NAME":"ONEWEB-0322","OBJECT_ID":"2021-083G","EPOCH":"2026-02-02T05:52:37.702848","MEAN_MOTION":13.13471121,"ECCENTRICITY":0.00012963,"INCLINATION":87.9018,"RA_OF_ASC_NODE":347.068,"ARG_OF_PERICENTER":80.2745,"MEAN_ANOMALY":279.853,"EPHEMERIS_TYPE":0,"CLASSIFICATION_TYPE":"U","NORAD_CAT_ID":49192,"ELEMENT_SET_NO":999,"REV_AT_EPOCH":21320,"BSTAR":0.00095075217,"MEAN_MOTION_DOT":3.6e-6,"MEAN_MOTION_DDOT":0},{"OBJECT_NAME":"ONEWEB-0324","OBJECT_ID":"2021-083H","EPOCH":"2026-02-02T07:16:40.491552","MEAN_MOTION":13.18686806,"ECCENTRICITY":0.00019279,"INCLINATION":87.9212,"RA_OF_ASC_NODE":2.2245,"ARG_OF_PERICENTER":87.3943,"MEAN_ANOMALY":272.741,"EPHEMERIS_TYPE":0,"CLASSIFICATION_TYPE":"U","NORAD_CAT_ID":49193,"ELEMENT_SET_NO":999,"REV_AT_EPOCH":21222,"BSTAR":-3.9579445e-5,"MEAN_MOTION_DOT":-3.0e-8,"MEAN_MOTION_DDOT":0},{"OBJECT_NAME":"ONEWEB-0325","OBJECT_ID":"2021-083J","EPOCH":"2026-02-02T07:21:24.026976","MEAN_MOTION":13.18687677,"ECCENTRICITY":0.00017844,"INCLINATION":87.9208,"RA_OF_ASC_NODE":2.2427,"ARG_OF_PERICENTER":82.3243,"MEAN_ANOMALY":277.8092,"EPHEMERIS_TYPE":0,"CLASSIFICATION_TYPE":"U","NORAD_CAT_ID":49194,"ELEMENT_SET_NO":999,"REV_AT_EPOCH":21223,"BSTAR":-5.8276787e-5,"MEAN_MOTION_DOT":-1.0e-7,"MEAN_MOTION_DDOT":0},{"OBJECT_NAME":"ONEWEB-0326","OBJECT_ID":"2021-083K","EPOCH":"2026-02-01T22:36:41.969088","MEAN_MOTION":13.18686426,"ECCENTRICITY":0.00020681,"INCLINATION":87.9211,"RA_OF_ASC_NODE":2.3027,"ARG_OF_PERICENTER":76.2642,"MEAN_ANOMALY":283.8721,"EPHEMERIS_TYPE":0,"CLASSIFICATION_TYPE":"U","NORAD_CAT_ID":49195,"ELEMENT_SET_NO":999,"REV_AT_EPOCH":21217,"BSTAR":-6.0025335e-5,"MEAN_MOTION_DOT":-1.1e-7,"MEAN_MOTION_DDOT":0},{"OBJECT_NAME":"ONEWEB-0327","OBJECT_ID":"2021-083L","EPOCH":"2026-02-01T22:36:18.147744","MEAN_MOTION":13.1868653,"ECCENTRICITY":0.00020053,"INCLINATION":87.9201,"RA_OF_ASC_NODE":2.318,"ARG_OF_PERICENTER":73.4759,"MEAN_ANOMALY":286.6593,"EPHEMERIS_TYPE":0,"CLASSIFICATION_TYPE":"U","NORAD_CAT_ID":49196,"ELEMENT_SET_NO":999,"REV_AT_EPOCH":21219,"BSTAR":-1.9082466e-5,"MEAN_MOTION_DOT":5.0e-8,"MEAN_MOTION_DDOT":0},{"OBJECT_NAME":"ONEWEB-0328","OBJECT_ID":"2021-083M","EPOCH":"2026-02-02T05:38:00.451680","MEAN_MOTION":13.13471465,"ECCENTRICITY":0.0001902,"INCLINATION":87.9031,"RA_OF_ASC_NODE":347.0244,"ARG_OF_PERICENTER":84.8066,"MEAN_ANOMALY":275.328,"EPHEMERIS_TYPE":0,"CLASSIFICATION_TYPE":"U","NORAD_CAT_ID":49197,"ELEMENT_SET_NO":999,"REV_AT_EPOCH":21318,"BSTAR":0.00098090157,"MEAN_MOTION_DOT":3.71e-6,"MEAN_MOTION_DDOT":0}]
