ONEWEB-0318             
1 49104U 21075AF  26032.94366240 -.00000020  00000+0 -83800-4 0  9996
2 49104  87.9210   2.3037 0002115  79.6016 280.5355 13.18686240219346
ONEWEB-0319             
1 49105U 21075AG  26033.00702602  .00000000  00000+0 -31975-4 0  9994
2 49105  87.9093  32.7281 0002247  77.1711 282.9672 13.17649275215806
ONEWEB-0323             
1 49106U 21075AH  26032.94852909  .00000350  00000+0  93696-3 0  9997
2 49106  87.8949  17.4903 0002469  80.8931 279.2477 13.12442069216819
ONEWEB-0329             
1 49107U 21075AJ  26033.01545577  .00000042  00000+0  74933-4 0  9999
2 49107  87.9090  32.7271 0002009  89.9329 270.2032 13.17651070215789
ONEWEB-0330             
1 49108U 21075AK  26033.01629799 -.00000012  00000+0 -63997-4 0  9996
2 49108  87.9092  32.7339 0001968  94.9170 265.2186 13.17650532215821
ONEWEB-0292             
1 49186U 21083A   26033.25503848  .00000154  00000+0  38722-3 0  9995
2 49186  87.9018 347.0723 0001961  78.2486 281.8863 13.13470211213219
ONEWEB-0303             
1 49187U 21083B   26032.94035830  .00000033  00000+0  49736-4 0  9996
2 49187  87.9212   2.3065 0001999  80.4494 279.6864 13.18686778212151
ONEWEB-0306             
1 49188U 21083C   26032.93045149  .00000079  00000+0  16720-3 0  9996
2 49188  87.9213   2.2922 0001678  87.7318 272.4006 13.18688319212199
ONEWEB-0307             
1 49189U 21083D   26033.24911968  .00000323  00000+0  84964-3 0  9990
2 49189  87.9014 347.0629 0001831  81.2771 278.8565 13.13469786213210
ONEWEB-0320             
1 49190U 21083E   26033.16551764 -.00000031  00000+0 -11027-3 0  9995
2 49190  87.9204   2.2717 0001852  84.4939 275.6405 13.18687206212182
ONEWEB-0321             
1 49191U 21083F   26033.27807475 -.00000016  00000+0 -70421-4 0  9998
2 49191  87.9225 301.3573 0001423  83.1812 276.9484 13.20774509219026
ONEWEB-0322             
1 49192U 21083G   26033.24488082  .00000360  00000+0  95075-3 0  9996
2 49192  87.9018 347.0680 0001296  80.2745 279.8530 13.13471121213208
ONEWEB-0324             
1 49193U 21083H   26033.30324643 -.00000003  00000+0 -39579-4 0  9990
2 49193  87.9212   2.2245 0001927  87.3943 272.7410 13.18686806212224
ONEWEB-0325             
1 49194U 21083J   26033.30652809 -.00000010  00000+0 -58277-4 0  9993
2 49194  87.9208   2.2427 0001784  82.3243 277.8092 13.18687677212231
ONEWEB-0326             
1 49195U 21083K   26032.94215242 -.00000011  00000+0 -60025-4 0  9994
2 49195  87.9211   2.3027 0002068  76.2642 283.8721 13.18686426212174
ONEWEB-0327             
1 49196U 21083L   26032.94187671  .00000005  00000+0 -19082-4 0  9998
2 49196  87.9201   2.3180 0002005  73.4759 286.6593 13.18686530212199
ONEWEB-0328             
1 49197U 21083M   26033.23472745  .00000371  00000+0  98090-3 0  9991
2 49197  87.9031 347.0244 0001902  84.8066 275.3280 13.13471465213185
